{"type": "FeatureCollection", "features": [ {"type": "Feature", "properties": {"norad_id": 54234, "name": "NOAA 21 (JPSS-2)", "group": "weather", "lat": -21.93191676792606, "lon": -61.42515572724159, "alt_km": 831.2296624110977, "timestamp": "2025-12-24T20:42:20.662079+00:00", "meta": {"OBJECT_NAME": "NOAA 21 (JPSS-2)", "OBJECT_ID": "2022-150A", "EPOCH": "2025-12-24T05:35:06.616608", "MEAN_MOTION": 14.19527238, "ECCENTRICITY": 0.00016973, "INCLINATION": 98.7477, "RA_OF_ASC_NODE": 294.3983, "ARG_OF_PERICENTER": 14.5818, "MEAN_ANOMALY": 345.5407, "EPHEMERIS_TYPE": 0, "CLASSIFICATION_TYPE": "U", "NORAD_CAT_ID": 54234, "ELEMENT_SET_NO": 999, "REV_AT_EPOCH": 16172, "BSTAR": 6.9446214e-05, "MEAN_MOTION_DOT": 1.02e-06, "MEAN_MOTION_DDOT": 0}, "tle": {"line1": "1 54234U 22150A   25358.23271547  .00000102  00000+0  69446-4 0  9997", "line2": "2 54234  98.7477 294.3983 0001697  14.5818 345.5407 14.19527238161727"}}, "geometry": {"type": "Point", "coordinates": [-61.42515572724159, -21.93191676792606]}}, {"type": "Feature", "properties": {"norad_id": 54743, "name": "METEOSAT-12 (MTG-I1)", "group": "weather", "lat": 0.23167953727276935, "lon": 43.90076788281308, "alt_km": 35791.29318912987, "timestamp": "2025-12-24T20:42:20.662090+00:00", "meta": {"OBJECT_NAME": "METEOSAT-12 (MTG-I1)", "OBJECT_ID": "2022-170C", "EPOCH": "2025-12-24T06:14:59.506944", "MEAN_MOTION": 1.00270845, "ECCENTRICITY": 0.00016026, "INCLINATION": 0.6987, "RA_OF_ASC_NODE": 25.505, "ARG_OF_PERICENTER": 240.7783, "MEAN_ANOMALY": 280.1831, "EPHEMERIS_TYPE": 0, "CLASSIFICATION_TYPE": "U", "NORAD_CAT_ID": 54743, "ELEMENT_SET_NO": 999, "REV_AT_EPOCH": 1122, "BSTAR": 0, "MEAN_MOTION_DOT": 1.3e-07, "MEAN_MOTION_DDOT": 0}, "tle": {"line1": "1 54743U 22170C   25358.26041096  .00000013  00000+0  00000+0 0  9998", "line2": "2 54743   0.6987  25.5050 0001602 240.7783 280.1831  1.00270845 11228"}}, "geometry": {"type": "Point", "coordinates": [43.90076788281308, 0.23167953727276935]}}, {"type": "Feature", "properties": {"norad_id": 55973, "name": "TIANMU-1 03", "group": "weather", "lat": 19.17179985079276, "lon": -15.515015870945684, "alt_km": 444.51791159870936, "timestamp": "2025-12-24T20:42:20.662101+00:00", "meta": {"OBJECT_NAME": "TIANMU-1 03", "OBJECT_ID": "2023-039A", "EPOCH": "2025-12-24T05:59:16.952928", "MEAN_MOTION": 15.41251862, "ECCENTRICITY": 0.00038332, "INCLINATION": 97.5113, "RA_OF_ASC_NODE": 161.225, "ARG_OF_PERICENTER": 27.6552, "MEAN_ANOMALY": 332.4897, "EPHEMERIS_TYPE": 0, "CLASSIFICATION_TYPE": "U", "NORAD_CAT_ID": 55973, "ELEMENT_SET_NO": 999, "REV_AT_EPOCH": 15383, "BSTAR": 0.00041499893, "MEAN_MOTION_DOT": 0.00017188, "MEAN_MOTION_DDOT": 0}, "tle": {"line1": "1 55973U 23039A   25358.24950177  .00017188  00000+0  41500-3 0  9991", "line2": "2 55973  97.5113 161.2250 0003833  27.6552 332.4897 15.41251862153839"}}, "geometry": {"type": "Point", "coordinates": [-15.515015870945684, 19.17179985079276]}}, {"type": "Feature", "properties": {"norad_id": 55974, "name": "TIANMU-1 04", "group": "weather", "lat": -69.43686583888164, "lon": -178.38486344726311, "alt_km": 448.6028579531858, "timestamp": "2025-12-24T20:42:20.662111+00:00", "meta": {"OBJECT_NAME": "TIANMU-1 04", "OBJECT_ID": "2023-039B", "EPOCH": "2025-12-24T06:59:30.674400", "MEAN_MOTION": 15.41596371, "ECCENTRICITY": 0.0004446, "INCLINATION": 97.5046, "RA_OF_ASC_NODE": 160.4543, "ARG_OF_PERICENTER": 20.7077, "MEAN_ANOMALY": 339.4349, "EPHEMERIS_TYPE": 0, "CLASSIFICATION_TYPE": "U", "NORAD_CAT_ID": 55974, "ELEMENT_SET_NO": 999, "REV_AT_EPOCH": 15384, "BSTAR": 0.00040512038, "MEAN_MOTION_DOT": 0.00016971, "MEAN_MOTION_DDOT": 0}, "tle": {"line1": "1 55974U 23039B   25358.29132725  .00016971  00000+0  40512-3 0  9999", "line2": "2 55974  97.5046 160.4543 0004446  20.7077 339.4349 15.41596371153845"}}, "geometry": {"type": "Point", "coordinates": [-178.38486344726311, -69.43686583888164]}}, {"type": "Feature", "properties": {"norad_id": 55975, "name": "TIANMU-1 05", "group": "weather", "lat": -54.89928405182574, "lon": 172.35223362758208, "alt_km": 450.02283579659706, "timestamp": "2025-12-24T20:42:20.662122+00:00", "meta": {"OBJECT_NAME": "TIANMU-1 05", "OBJECT_ID": "2023-039C", "EPOCH": "2025-12-24T06:55:21.444960", "MEAN_MOTION": 15.41209821, "ECCENTRICITY": 0.00039902, "INCLINATION": 97.5092, "RA_OF_ASC_NODE": 160.9443, "ARG_OF_PERICENTER": 46.3231, "MEAN_ANOMALY": 313.8345, "EPHEMERIS_TYPE": 0, "CLASSIFICATION_TYPE": "U", "NORAD_CAT_ID": 55975, "ELEMENT_SET_NO": 999, "REV_AT_EPOCH": 15382, "BSTAR": 0.00040383758, "MEAN_MOTION_DOT": 0.000167, "MEAN_MOTION_DDOT": 0}, "tle": {"line1": "1 55975U 23039C   25358.28844265  .00016700  00000+0  40384-3 0  9995", "line2": "2 55975  97.5092 160.9443 0003990  46.3231 313.8345 15.41209821153821"}}, "geometry": {"type": "Point", "coordinates": [172.35223362758208, -54.89928405182574]}}, {"type": "Feature", "properties": {"norad_id": 55976, "name": "TIANMU-1 06", "group": "weather", "lat": -77.96366459421681, "lon": -159.76564967036825, "alt_km": 449.9386966412385, "timestamp": "2025-12-24T20:42:20.662132+00:00", "meta": {"OBJECT_NAME": "TIANMU-1 06", "OBJECT_ID": "2023-039D", "EPOCH": "2025-12-24T07:02:05.193024", "MEAN_MOTION": 15.41647486, "ECCENTRICITY": 0.0004233, "INCLINATION": 97.5103, "RA_OF_ASC_NODE": 161.4236, "ARG_OF_PERICENTER": 40.4568, "MEAN_ANOMALY": 319.6993, "EPHEMERIS_TYPE": 0, "CLASSIFICATION_TYPE": "U", "NORAD_CAT_ID": 55976, "ELEMENT_SET_NO": 999, "REV_AT_EPOCH": 15384, "BSTAR": 0.00040145901, "MEAN_MOTION_DOT": 0.00016845, "MEAN_MOTION_DDOT": 0}, "tle": {"line1": "1 55976U 23039D   25358.29311566  .00016845  00000+0  40146-3 0  9996", "line2": "2 55976  97.5103 161.4236 0004233  40.4568 319.6993 15.41647486153848"}}, "geometry": {"type": "Point", "coordinates": [-159.76564967036825, -77.96366459421681]}}, {"type": "Feature", "properties": {"norad_id": 56232, "name": "FENGYUN 3G", "group": "weather", "lat": -49.831575176399404, "lon": 80.57540656158673, "alt_km": 412.6698429489843, "timestamp": "2025-12-24T20:42:20.662144+00:00", "meta": {"OBJECT_NAME": "FENGYUN 3G", "OBJECT_ID": "2023-055A", "EPOCH": "2025-12-24T10:15:36.171936", "MEAN_MOTION": 15.52003311, "ECCENTRICITY": 0.0003875, "INCLINATION": 49.9918, "RA_OF_ASC_NODE": 167.1155, "ARG_OF_PERICENTER": 288.9301, "MEAN_ANOMALY": 71.1246, "EPHEMERIS_TYPE": 0, "CLASSIFICATION_TYPE": "U", "NORAD_CAT_ID": 56232, "ELEMENT_SET_NO": 999, "REV_AT_EPOCH": 15284, "BSTAR": 0.000503, "MEAN_MOTION_DOT": 0.00030538, "MEAN_MOTION_DDOT": 0}, "tle": {"line1": "1 56232U 23055A   25358.42750199  .00030538  00000+0  50300-3 0  9992", "line2": "2 56232  49.9918 167.1155 0003875 288.9301  71.1246 15.52003311152842"}}, "geometry": {"type": "Point", "coordinates": [80.57540656158673, -49.831575176399404]}}, {"type": "Feature", "properties": {"norad_id": 57166, "name": "METEOR-M2 3", "group": "weather", "lat": 77.23654738741733, "lon": 10.051267693663824, "alt_km": 805.2593947168243, "timestamp": "2025-12-24T20:42:20.662155+00:00", "meta": {"OBJECT_NAME": "METEOR-M2 3", "OBJECT_ID": "2023-091A", "EPOCH": "2025-12-24T06:50:18.066912", "MEAN_MOTION": 14.24027425, "ECCENTRICITY": 0.00032877, "INCLINATION": 98.6362, "RA_OF_ASC_NODE": 51.6218, "ARG_OF_PERICENTER": 333.0311, "MEAN_ANOMALY": 27.0697, "EPHEMERIS_TYPE": 0, "CLASSIFICATION_TYPE": "U", "NORAD_CAT_ID": 57166, "ELEMENT_SET_NO": 999, "REV_AT_EPOCH": 12962, "BSTAR": 2.2093923e-05, "MEAN_MOTION_DOT": 7e-08, "MEAN_MOTION_DDOT": 0}, "tle": {"line1": "1 57166U 23091A   25358.28493133  .00000007  00000+0  22094-4 0  9993", "line2": "2 57166  98.6362  51.6218 0003287 333.0311  27.0697 14.24027425129620"}}, "geometry": {"type": "Point", "coordinates": [10.051267693663824, 77.23654738741733]}}, {"type": "Feature", "properties": {"norad_id": 57399, "name": "TIANMU-1 07", "group": "weather", "lat": 54.939448673241195, "lon": -121.05097100005003, "alt_km": 474.9737332510813, "timestamp": "2025-12-24T20:42:20.662165+00:00", "meta": {"OBJECT_NAME": "TIANMU-1 07", "OBJECT_ID": "2023-101A", "EPOCH": "2025-12-24T06:01:15.414240", "MEAN_MOTION": 15.28230584, "ECCENTRICITY": 0.000507, "INCLINATION": 97.2856, "RA_OF_ASC_NODE": 47.8467, "ARG_OF_PERICENTER": 52.0404, "MEAN_ANOMALY": 308.1293, "EPHEMERIS_TYPE": 0, "CLASSIFICATION_TYPE": "U", "NORAD_CAT_ID": 57399, "ELEMENT_SET_NO": 999, "REV_AT_EPOCH": 13491, "BSTAR": 0.00028294357, "MEAN_MOTION_DOT": 7.714e-05, "MEAN_MOTION_DDOT": 0}, "tle": {"line1": "1 57399U 23101A   25358.25087285  .00007714  00000+0  28294-3 0  9996", "line2": "2 57399  97.2856  47.8467 0005070  52.0404 308.1293 15.28230584134917"}}, "geometry": {"type": "Point", "coordinates": [-121.05097100005003, 54.939448673241195]}}, {"type": "Feature", "properties": {"norad_id": 57400, "name": "TIANMU-1 08", "group": "weather", "lat": -54.253324852071046, "lon": 58.47739978130552, "alt_km": 489.3572848621361, "timestamp": "2025-12-24T20:42:20.662174+00:00", "meta": {"OBJECT_NAME": "TIANMU-1 08", "OBJECT_ID": "2023-101B", "EPOCH": "2025-12-24T06:48:08.339040", "MEAN_MOTION": 15.28213074, "ECCENTRICITY": 0.00069905, "INCLINATION": 97.2845, "RA_OF_ASC_NODE": 47.6745, "ARG_OF_PERICENTER": 51.3078, "MEAN_ANOMALY": 308.8786, "EPHEMERIS_TYPE": 0, "CLASSIFICATION_TYPE": "U", "NORAD_CAT_ID": 57400, "ELEMENT_SET_NO": 999, "REV_AT_EPOCH": 13491, "BSTAR": 0.00029366725, "MEAN_MOTION_DOT": 8.007e-05, "MEAN_MOTION_DDOT": 0}, "tle": {"line1": "1 57400U 23101B   25358.28342985  .00008007  00000+0  29367-3 0  9991", "line2": "2 57400  97.2845  47.6745 0006990  51.3078 308.8786 15.28213074134915"}}, "geometry": {"type": "Point", "coordinates": [58.47739978130552, -54.253324852071046]}}]}